GSAT0101 (PRN E11)      
1 37846U 11060A   21363.14140978 -.00000057  00000+0  00000+0 0  9996
2 37846  56.9291  25.9705 0002729 317.8112  42.2268  1.70474928 63312
GSAT0102 (PRN E12)      
1 37847U 11060B   21364.24848497 -.00000059  00000+0  00000+0 0  9992
2 37847  56.9304  25.9398 0004671 303.3015  62.6355  1.70475185 63348
GSAT0103 (PRN E19)      
1 38857U 12055A   21364.35494325  .00000058  00000+0  00000+0 0  9996
2 38857  55.0932 146.3493 0002110 230.8894 129.0534  1.70473531 57226
GSAT0104 (PRN E20)      
1 38858U 12055B   21363.73875492  .00000064  00000+0  00000+0 0  9993
2 38858  55.0933 146.3677 0001454 145.5769 214.3985  1.70473817 57219
GSAT0201 (PRN E18)      
1 40128U 14050A   21363.96338508 -.00000088  00000+0  00000+0 0  9997
2 40128  50.3842 339.0360 1633539 118.1119 259.3915  1.85519229 48070
GSAT0202 (PRN E14)      
1 40129U 14050B   21360.45203415 -.00000074  00000+0  00000+0 0  9992
2 40129  50.4138 338.2312 1630873 118.8016 258.5826  1.85519895 50141
GSAT0203 (PRN E26)      
1 40544U 15017A   21365.26922363 -.00000062  00000+0  00000+0 0  9998
2 40544  56.7251  25.9684 0005219 258.5854 101.4143  1.70475915 41438
GSAT0204 (PRN E22)      
1 40545U 15017B   21364.93514375 -.00000061  00000+0  00000+0 0  9991
2 40545  56.7308  25.9893 0004784 248.1035 111.9044  1.70475527  4474
GSAT0205 (PRN E24)      
1 40889U 15045A   21364.11594855  .00000006  00000+0  00000+0 0  9992
2 40889  55.7368 266.6418 0006025  11.0716 349.0003  1.70474540 39224
GSAT0206 (PRN E30)      
1 40890U 15045B   21364.33608098  .00000006  00000+0  00000+0 0  9993
2 40890  55.7355 266.6320 0004387   2.9073 357.1548  1.70472835 39250
GSAT0209 (PRN E09)      
1 41174U 15079A   21364.51150979  .00000056  00000+0  00000+0 0  9991
2 41174  55.1090 146.0473 0002084 331.8599  28.0889  1.70473383 36994
GSAT0208 (PRN E08)      
1 41175U 15079B   21364.14458330  .00000060  00000+0  00000+0 0  9998
2 41175  55.1073 146.0561 0001422 342.1394  17.8185  1.70473324 37404
GSAT0211 (PRN E02)      
1 41549U 16030A   21363.09108987  .00000004  00000+0  00000+0 0  9992
2 41549  55.8814 266.5814 0004978 338.7285  21.3069  1.70474296 34864
GSAT0210 (PRN E01)      
1 41550U 16030B   21363.97038942  .00000006  00000+0  00000+0 0  9996
2 41550  55.8802 266.5587 0003663 317.6361  42.3940  1.70474377 34873
GSAT0207 (PRN E07)      
1 41859U 16069A   21363.63082615  .00000065  00000+0  00000+0 0  9994
2 41859  54.7683 146.2947 0001863 300.3714  59.5767  1.70473294 31607
GSAT0212 (PRN E03)      
1 41860U 16069B   21363.48425314  .00000066  00000+0  00000+0 0  9997
2 41860  54.7660 146.2968 0001496  11.9321 348.0390  1.70473334 31858
GSAT0213 (PRN E04)      
1 41861U 16069C   21365.02288928  .00000050  00000+0  00000+0 0  9991
2 41861  54.7688 146.2589 0001866 246.8984 113.0382  1.70473347 31746
GSAT0214 (PRN E05)      
1 41862U 16069D   21363.41026994  .00000067  00000+0  00000+0 0  9994
2 41862  54.7665 146.2984 0000964 238.5475 121.4111  1.70473414 31841
GSAT0215 (PRN E21)      
1 43055U 17079A   21363.90096594  .00000006  00000+0  00000+0 0  9992
2 43055  55.8560 266.3940 0002989 319.4639  40.5722  1.70473542 25191
GSAT0216 (PRN E25)      
1 43056U 17079B   21364.77990861  .00000008  00000+0  00000+0 0  9991
2 43056  55.8558 266.3696 0004468 305.4815  54.5389  1.70473684 25227
GSAT0217 (PRN E27)      
1 43057U 17079C   21363.24033545  .00000005  00000+0  00000+0 0  9997
2 43057  55.8549 266.4120 0004517 318.5680  41.4544  1.70473593 25183
GSAT0218 (PRN E31)      
1 43058U 17079D   21364.04693316  .00000006  00000+0  00000+0 0  9996
2 43058  55.8547 266.3871 0004730 299.1944  60.8173  1.70473632 25220
GSAT0221 (PRN E15)      
1 43564U 18060A   21364.53163972 -.00000059  00000+0  00000+0 0  9992
2 43564  57.1081  25.7611 0005696 272.3736  87.6203  1.70475804 21380
GSAT0222 (PRN E33)      
1 43565U 18060B   21363.57830846 -.00000057  00000+0  00000+0 0  9995
2 43565  57.1102  25.7871 0005311 278.4038  81.5952  1.70475822 21417
GSAT0219 (PRN E36)      
1 43566U 18060C   21364.38547344 -.00000059  00000+0  00000+0 0  9996
2 43566  57.1104  25.7671 0004955 278.6810  81.3221  1.70475823 21408
GSAT0220 (PRN E13)      
1 43567U 18060D   21365.19205207 -.00000061  00000+0  00000+0 0  9999
2 43567  57.1107  25.7459 0005083 274.3149  85.6856  1.70475475 21401
GSAT0223                
1 49809U 21116A   21364.62457771 -.00000060  00000+0  00000+0 0  9991
2 49809  57.1147  25.6653 0022703  80.1627 102.2388  1.68524914   422
GSAT0224                
1 49810U 21116B   21365.26281611 -.00000061  00000+0  00000+0 0  9993
2 49810  57.0970  25.6362 0007689  18.2937 266.7077  1.69513944   430
